ONEWEB-0435             
1 51632U 22012L   25188.82327655  .00000489  00000+0  13635-2 0  9996
2 51632  87.8832 104.9638 0002334  83.8154 276.3239 13.10374590164216
ONEWEB-0436             
1 51633U 22012M   25189.14542927  .00000041  00000+0  72145-4 0  9991
2 51633  87.9051  74.3301 0002104  83.1014 277.0357 13.17649091169662
ONEWEB-0438             
1 51634U 22012N   25188.80666385 -.00000357  00000+0 -10600-2 0  9997
2 51634  87.8834 104.9677 0001779  77.8136 282.3191 13.10376146164244
ONEWEB-0439             
1 51635U 22012P   25188.80998366 -.00000379  00000+0 -11208-2 0  9994
2 51635  87.8833 104.9545 0001961  79.2075 280.9273 13.10376021164224
ONEWEB-0442             
1 51636U 22012Q   25188.91001932  .00000075  00000+0  15937-3 0  9996
2 51636  87.9062  74.4292 0001298  70.9149 289.2123 13.17647740168331
ONEWEB-0443             
1 51637U 22012R   25189.15723976  .00000048  00000+0  90335-4 0  9999
2 51637  87.9057  74.3907 0001659  90.0020 270.1302 13.17648539169707
ONEWEB-0444             
1 51638U 22012S   25188.80002116 -.00000643  00000+0 -18790-2 0  9993
2 51638  87.8828 104.9591 0002023  83.1031 277.0326 13.10374161164238
ONEWEB-0445             
1 51639U 22012T   25188.82161820  .00000360  00000+0  99502-3 0  9999
2 51639  87.8821 104.9085 0001922  72.0425 288.0912 13.10375434164249
